{"type": "FeatureCollection", "features": [ {"type": "Feature", "properties": {"norad_id": 66569, "name": "STARLINK-35835", "group": "last-30-days", "lat": -17.35552621910586, "lon": 79.0955132366192, "alt_km": 415.8448299459569, "timestamp": "2025-12-16T13:52:36.286338+00:00", "meta": {"OBJECT_NAME": "STARLINK-35835", "OBJECT_ID": "2025-268N", "EPOCH": "2025-12-15T17:53:30.134688", "MEAN_MOTION": 15.50581218, "ECCENTRICITY": 0.00013774, "INCLINATION": 43.0003, "RA_OF_ASC_NODE": 103.5637, "ARG_OF_PERICENTER": 270.128, "MEAN_ANOMALY": 89.9422, "EPHEMERIS_TYPE": 0, "CLASSIFICATION_TYPE": "U", "NORAD_CAT_ID": 66569, "ELEMENT_SET_NO": 999, "REV_AT_EPOCH": 509, "BSTAR": 0.0014471406, "MEAN_MOTION_DOT": 0.00085494, "MEAN_MOTION_DDOT": 0}, "tle": {"line1": "1 66569U 25268N   25349.74548767  .00085494  00000+0  14471-2 0  9994", "line2": "2 66569  43.0003 103.5637 0001377 270.1280  89.9422 15.50581218  5091"}}, "geometry": {"type": "Point", "coordinates": [79.0955132366192, -17.35552621910586]}}, {"type": "Feature", "properties": {"norad_id": 66570, "name": "STARLINK-35834", "group": "last-30-days", "lat": -16.116771721878013, "lon": 80.62228658297758, "alt_km": 415.43231907359404, "timestamp": "2025-12-16T13:52:36.286348+00:00", "meta": {"OBJECT_NAME": "STARLINK-35834", "OBJECT_ID": "2025-268P", "EPOCH": "2025-12-15T17:53:00.601440", "MEAN_MOTION": 15.50576778, "ECCENTRICITY": 0.00015175, "INCLINATION": 43.0015, "RA_OF_ASC_NODE": 103.56, "ARG_OF_PERICENTER": 287.477, "MEAN_ANOMALY": 72.5924, "EPHEMERIS_TYPE": 0, "CLASSIFICATION_TYPE": "U", "NORAD_CAT_ID": 66570, "ELEMENT_SET_NO": 999, "REV_AT_EPOCH": 509, "BSTAR": 0.00163027, "MEAN_MOTION_DOT": 0.00096477, "MEAN_MOTION_DDOT": 0}, "tle": {"line1": "1 66570U 25268P   25349.74514585  .00096477  00000+0  16303-2 0  9996", "line2": "2 66570  43.0015 103.5600 0001517 287.4770  72.5924 15.50576778  5097"}}, "geometry": {"type": "Point", "coordinates": [80.62228658297758, -16.116771721878013]}}, {"type": "Feature", "properties": {"norad_id": 66571, "name": "STARLINK-35836", "group": "last-30-days", "lat": -14.891490272783837, "lon": 82.09740541251928, "alt_km": 415.2110252319735, "timestamp": "2025-12-16T13:52:36.286359+00:00", "meta": {"OBJECT_NAME": "STARLINK-35836", "OBJECT_ID": "2025-268Q", "EPOCH": "2025-12-15T16:19:45.764256", "MEAN_MOTION": 15.50585283, "ECCENTRICITY": 0.00014873, "INCLINATION": 42.9954, "RA_OF_ASC_NODE": 103.9347, "ARG_OF_PERICENTER": 312.1791, "MEAN_ANOMALY": 47.8943, "EPHEMERIS_TYPE": 0, "CLASSIFICATION_TYPE": "U", "NORAD_CAT_ID": 66571, "ELEMENT_SET_NO": 999, "REV_AT_EPOCH": 508, "BSTAR": 0.0011259195, "MEAN_MOTION_DOT": 0.00066287, "MEAN_MOTION_DDOT": 0}, "tle": {"line1": "1 66571U 25268Q   25349.68039079  .00066287  00000+0  11259-2 0  9991", "line2": "2 66571  42.9954 103.9347 0001487 312.1791  47.8943 15.50585283  5081"}}, "geometry": {"type": "Point", "coordinates": [82.09740541251928, -14.891490272783837]}}, {"type": "Feature", "properties": {"norad_id": 66572, "name": "STARLINK-35870", "group": "last-30-days", "lat": -13.63645505845619, "lon": 83.58758677065848, "alt_km": 415.68492325211446, "timestamp": "2025-12-16T13:52:36.286369+00:00", "meta": {"OBJECT_NAME": "STARLINK-35870", "OBJECT_ID": "2025-268R", "EPOCH": "2025-12-15T17:52:01.245504", "MEAN_MOTION": 15.50594165, "ECCENTRICITY": 0.00014954, "INCLINATION": 42.9995, "RA_OF_ASC_NODE": 103.5566, "ARG_OF_PERICENTER": 266.7473, "MEAN_ANOMALY": 93.3216, "EPHEMERIS_TYPE": 0, "CLASSIFICATION_TYPE": "U", "NORAD_CAT_ID": 66572, "ELEMENT_SET_NO": 999, "REV_AT_EPOCH": 509, "BSTAR": 0.00095913059, "MEAN_MOTION_DOT": 0.00056363, "MEAN_MOTION_DDOT": 0}, "tle": {"line1": "1 66572U 25268R   25349.74445886  .00056363  00000+0  95913-3 0  9990", "line2": "2 66572  42.9995 103.5566 0001495 266.7473  93.3216 15.50594165  5095"}}, "geometry": {"type": "Point", "coordinates": [83.58758677065848, -13.63645505845619]}}, {"type": "Feature", "properties": {"norad_id": 66573, "name": "STARLINK-35650", "group": "last-30-days", "lat": -12.349260027680922, "lon": 85.07998859622538, "alt_km": 414.79394751300333, "timestamp": "2025-12-16T13:52:36.286379+00:00", "meta": {"OBJECT_NAME": "STARLINK-35650", "OBJECT_ID": "2025-268S", "EPOCH": "2025-12-15T16:18:46.744416", "MEAN_MOTION": 15.50589212, "ECCENTRICITY": 0.00015462, "INCLINATION": 42.9911, "RA_OF_ASC_NODE": 103.931, "ARG_OF_PERICENTER": 343.0592, "MEAN_ANOMALY": 17.0216, "EPHEMERIS_TYPE": 0, "CLASSIFICATION_TYPE": "U", "NORAD_CAT_ID": 66573, "ELEMENT_SET_NO": 999, "REV_AT_EPOCH": 508, "BSTAR": 0.001308297, "MEAN_MOTION_DOT": 0.00077199, "MEAN_MOTION_DDOT": 0}, "tle": {"line1": "1 66573U 25268S   25349.67970769  .00077199  00000+0  13083-2 0  9993", "line2": "2 66573  42.9911 103.9310 0001546 343.0592  17.0216 15.50589212  5082"}}, "geometry": {"type": "Point", "coordinates": [85.07998859622538, -12.349260027680922]}}, {"type": "Feature", "properties": {"norad_id": 66574, "name": "STARLINK-35812", "group": "last-30-days", "lat": -9.409008657412292, "lon": 88.41257138805813, "alt_km": 413.47985363475254, "timestamp": "2025-12-16T13:52:36.286391+00:00", "meta": {"OBJECT_NAME": "STARLINK-35812", "OBJECT_ID": "2025-268T", "EPOCH": "2025-12-14T01:39:20.923488", "MEAN_MOTION": 15.50571155, "ECCENTRICITY": 0.00014446, "INCLINATION": 42.9999, "RA_OF_ASC_NODE": 113.3431, "ARG_OF_PERICENTER": 286.1846, "MEAN_ANOMALY": 73.8855, "EPHEMERIS_TYPE": 0, "CLASSIFICATION_TYPE": "U", "NORAD_CAT_ID": 66574, "ELEMENT_SET_NO": 999, "REV_AT_EPOCH": 483, "BSTAR": 0.002097662, "MEAN_MOTION_DOT": 0.00124662, "MEAN_MOTION_DDOT": 0}, "tle": {"line1": "1 66574U 25268T   25348.06899217  .00124662  00000+0  20977-2 0  9992", "line2": "2 66574  42.9999 113.3431 0001444 286.1846  73.8855 15.50571155  4832"}}, "geometry": {"type": "Point", "coordinates": [88.41257138805813, -9.409008657412292]}}, {"type": "Feature", "properties": {"norad_id": 66575, "name": "STARLINK-35810", "group": "last-30-days", "lat": -9.778248209021113, "lon": 88.00224503130578, "alt_km": 414.44729730738254, "timestamp": "2025-12-16T13:52:36.286407+00:00", "meta": {"OBJECT_NAME": "STARLINK-35810", "OBJECT_ID": "2025-268U", "EPOCH": "2025-12-15T16:17:47.089536", "MEAN_MOTION": 15.50593281, "ECCENTRICITY": 0.00020416, "INCLINATION": 42.9965, "RA_OF_ASC_NODE": 103.9231, "ARG_OF_PERICENTER": 303.8123, "MEAN_ANOMALY": 56.2543, "EPHEMERIS_TYPE": 0, "CLASSIFICATION_TYPE": "U", "NORAD_CAT_ID": 66575, "ELEMENT_SET_NO": 999, "REV_AT_EPOCH": 508, "BSTAR": 0.0012440856, "MEAN_MOTION_DOT": 0.00073369, "MEAN_MOTION_DDOT": 0}, "tle": {"line1": "1 66575U 25268U   25349.67901724  .00073369  00000+0  12441-2 0  9992", "line2": "2 66575  42.9965 103.9231 0002041 303.8123  56.2543 15.50593281  5089"}}, "geometry": {"type": "Point", "coordinates": [88.00224503130578, -9.778248209021113]}}, {"type": "Feature", "properties": {"norad_id": 66576, "name": "STARLINK-35814", "group": "last-30-days", "lat": -8.468011861487383, "lon": 89.46262026864875, "alt_km": 414.75699546828946, "timestamp": "2025-12-16T13:52:36.286417+00:00", "meta": {"OBJECT_NAME": "STARLINK-35814", "OBJECT_ID": "2025-268V", "EPOCH": "2025-12-15T16:17:17.017152", "MEAN_MOTION": 15.50597287, "ECCENTRICITY": 0.00023303, "INCLINATION": 43.0016, "RA_OF_ASC_NODE": 103.9189, "ARG_OF_PERICENTER": 276.2933, "MEAN_ANOMALY": 83.7661, "EPHEMERIS_TYPE": 0, "CLASSIFICATION_TYPE": "U", "NORAD_CAT_ID": 66576, "ELEMENT_SET_NO": 999, "REV_AT_EPOCH": 508, "BSTAR": 0.0012030236, "MEAN_MOTION_DOT": 0.00070925, "MEAN_MOTION_DDOT": 0}, "tle": {"line1": "1 66576U 25268V   25349.67866918  .00070925  00000+0  12030-2 0  9997", "line2": "2 66576  43.0016 103.9189 0002330 276.2933  83.7661 15.50597287  5080"}}, "geometry": {"type": "Point", "coordinates": [89.46262026864875, -8.468011861487383]}}, {"type": "Feature", "properties": {"norad_id": 66577, "name": "STARLINK-35815", "group": "last-30-days", "lat": -7.185617917219542, "lon": 90.87488502013123, "alt_km": 414.1151065545264, "timestamp": "2025-12-16T13:52:36.286427+00:00", "meta": {"OBJECT_NAME": "STARLINK-35815", "OBJECT_ID": "2025-268W", "EPOCH": "2025-12-15T16:16:47.789760", "MEAN_MOTION": 15.50596614, "ECCENTRICITY": 0.00019566, "INCLINATION": 42.9973, "RA_OF_ASC_NODE": 103.917, "ARG_OF_PERICENTER": 312.8942, "MEAN_ANOMALY": 47.1754, "EPHEMERIS_TYPE": 0, "CLASSIFICATION_TYPE": "U", "NORAD_CAT_ID": 66577, "ELEMENT_SET_NO": 999, "REV_AT_EPOCH": 508, "BSTAR": 0.0012838684, "MEAN_MOTION_DOT": 0.00075758, "MEAN_MOTION_DDOT": 0}, "tle": {"line1": "1 66577U 25268W   25349.67833090  .00075758  00000+0  12839-2 0  9999", "line2": "2 66577  42.9973 103.9170 0001956 312.8942  47.1754 15.50596614  5081"}}, "geometry": {"type": "Point", "coordinates": [90.87488502013123, -7.185617917219542]}}, {"type": "Feature", "properties": {"norad_id": 66578, "name": "STARLINK-35743", "group": "last-30-days", "lat": -6.031205451261239, "lon": 92.13511793843624, "alt_km": 415.0275709781545, "timestamp": "2025-12-16T13:52:36.286437+00:00", "meta": {"OBJECT_NAME": "STARLINK-35743", "OBJECT_ID": "2025-268X", "EPOCH": "2025-12-15T16:16:19.050528", "MEAN_MOTION": 15.50569208, "ECCENTRICITY": 0.00022003, "INCLINATION": 42.9999, "RA_OF_ASC_NODE": 103.9125, "ARG_OF_PERICENTER": 266.0118, "MEAN_ANOMALY": 94.049, "EPHEMERIS_TYPE": 0, "CLASSIFICATION_TYPE": "U", "NORAD_CAT_ID": 66578, "ELEMENT_SET_NO": 999, "REV_AT_EPOCH": 508, "BSTAR": 0.0008996047, "MEAN_MOTION_DOT": 0.00052774, "MEAN_MOTION_DDOT": 0}, "tle": {"line1": "1 66578U 25268X   25349.67799827  .00052774  00000+0  89960-3 0  9992", "line2": "2 66578  42.9999 103.9125 0002200 266.0118  94.0490 15.50569208  5085"}}, "geometry": {"type": "Point", "coordinates": [92.13511793843624, -6.031205451261239]}}]}